#cP2022  3  9  0  0  0.00000000      96   u+U IGb14 FIT  GFZ                    
## 2200 259200.00000000   900.00000000 59647 0.0000000000000                    
+   50   G01G02G03G04G05G06G07G08G09G10G12G13G14G15G16G17G18                    
+        G19G20G21G22G23G24G25G26G27G28G29G30G31G32R01R02R03                    
+        R05R07R08R09R11R12R13R14R15R17R18R19R20R21R22R24 00                    
+         00 00 00 00 00 00 00 00 00 00 00 00 00 00 00 00 00                    
+         00 00 00 00 00 00 00 00 00 00 00 00 00 00 00 00 00                    
++         5  8  6  5  7  5  6  5  5  5  5  6  5  6  5  6  5                    
++         6  7  6  5  6  6  5  5  5  6  6  5  8  5  9  6  5                    
++         5  5  7  7  6  6  8  6  6  6  6 10 10 10 10  9  0                    
++         0  0  0  0  0  0  0  0  0  0  0  0  0  0  0  0  0                    
++         0  0  0  0  0  0  0  0  0  0  0  0  0  0  0  0  0                    
%c M  cc GPS ccc cccc cccc cccc cccc ccccc ccccc ccccc ccccc                    
%c cc cc ccc ccc cccc cccc cccc cccc ccccc ccccc ccccc ccccc                    
%f  1.2500000  1.025000000  0.00000000000  0.000000000000000                    
%f  0.0000000  0.000000000  0.00000000000  0.000000000000000                    
%i    0    0    0    0      0      0      0      0         0                    
%i    0    0    0    0      0      0      0      0         0                    
/* PCV:IGS14_2196 OL/AL:FES2004  NONE     YN CLK:CoN ORB:CoN                    
/*     GeoForschungsZentrum Potsdam                                             
/*                                                                              
/*                                                                              
*  2022  3  9  3 45  0.00000000                                                 
PG01   5272.250273  13981.390534 -22263.682041    413.432828                    
PG02  16704.735353 -15220.954501  14722.075597   -652.011182                    
PG03  11536.740228  22352.766333  -8802.569767   -154.982774                    
PG04   1497.200745  22725.499550  13602.619874   -184.907941                    
PG05   2124.736417 -17654.023087  19520.617903    -74.014918                    
PG06  26022.460603  -5491.139126    728.502496    225.187322                    
PG07  20827.888308   7298.548570  15511.120654    314.989771                    
PG08  -5283.590732  25535.092627  -3957.274170    -59.111840                    
PG09  10288.157125  14119.848623  19927.986146   -350.728203                    
PG10 -20347.023935  -7090.459829 -15576.613388   -341.403808                    
PG12  -7369.563853 -22949.840998 -11566.104635   -182.069532                    
PG13  13181.323215 -22826.186029   2283.022079    273.772590                    
PG14  20318.809952   8143.694978 -15099.406978    -91.973622                    
PG15   1664.084695 -25953.513718  -4883.389070    -78.220908                    
PG16  -7485.507692  14074.559335  20886.802216   -478.467160                    
PG17  15968.186056  -2321.101941 -20677.452145    584.796789                    
PG18 -20547.531287  -7046.001916  15349.453012    224.079293                    
PG19  17558.433988  -9516.006609 -17674.529568    128.570918                    
PG20  10400.244092 -11668.159954  21472.182001    516.383313                    
PG21  -5853.371440  15904.664294 -19608.703881    159.139816                    
PG22 -17133.867669  13097.867461 -14974.933103    224.670888                    
PG23 -20486.904267 -15754.518792  -6352.535726     -5.215660                    
PG24  -1274.885108 -16045.046262 -21388.951792    269.632304                    
PG25 -17432.489590 -20241.986228   -455.016555    295.755209                    
PG26 -16575.734349   4284.695843  20291.309371    189.292741                    
PG27 -12437.737616  22160.292314   6776.101533    147.545948                    
PG28  17059.295137    450.218594 -19773.176383    384.552094                    
PG29  -7193.548205 -16388.445318  19558.178865   -489.128707                    
PG30  25410.862226   1534.721971   8078.362481   -517.666408                    
PG31 -25815.808002   6561.816089   2965.414838   -168.084882                    
PG32 -16607.815789   6561.237452 -19463.261272    -81.223890                    
PR01   6306.025323 -16792.496835  18135.406629      7.203581                    
PR02  -2768.730705 -25387.264826    515.041619    511.929791                    
PR03  -9733.498983 -17545.753371 -15737.841150     52.775897                    
PR05  -6197.855947  17398.094097 -17567.741440     89.029472                    
PR07   9938.328626  16833.272709  16401.453701     32.446235                    
PR08  11002.526012   -157.244112  23071.480673    -63.932001                    
PR09   7427.692054  13711.926316  20220.861440     43.360421                    
PR11  23177.970291   4330.765059  -9738.483175     43.998431                    
PR12  11133.171247  -6738.624477 -21915.334575     17.386780                    
PR13  -6217.270063 -13285.324985 -20891.474832    -19.206965                    
PR14 -21234.470793 -12321.458276  -6898.217714     75.187676                    
PR15 -22910.688650  -4099.443191  10454.577923     97.675022                    
PR17 -10358.163420  -5128.570146  22752.501242    507.984719                    
PR18 -20238.304427   7378.972942  13629.417343    109.703864                    
PR19 -20419.932700  15194.182415  -1648.385583   -180.885087                    
PR20  -6948.016590  15229.120616 -19217.863204    -66.363323                    
PR21  11419.726213   4075.808595 -22437.076695   -283.826284                    
PR22  20613.029080  -7976.303591 -12838.564091   -169.408715                    
PR24   5746.405306 -15489.383896  19451.123035     83.527619                    
EOF                                     
